start=new Date('2022-06-04T00:00:00.000Z').valueOf();
sats=[{"MEAN_ELEMENT_THEORY":"SGP4","TLE_LINE1":"1 45380U 20019W   22154.50681059 -.00002009  00000-0 -11596-3 0  9998","FILE":"3479192","REV_AT_EPOCH":"12273","ELEMENT_SET_NO":"999","PERIOD":"95.592","MEAN_ANOMALY":"311.0929","INCLINATION":"53.0551","COUNTRY_CODE":"US","ARG_OF_PERICENTER":"49.0234","EPOCH":"2022-06-03T12:09:48.434976","TIME_SYSTEM":"UTC","OBJECT_NAME":"STARLINK-1207","EPHEMERIS_TYPE":"0","ECCENTRICITY":"0.00020180","DECAY_DATE":null,"APOAPSIS":"548.601","SITE":"AFETR","BSTAR":"-0.00011596000000","CENTER_NAME":"EARTH","CLASSIFICATION_TYPE":"U","OBJECT_TYPE":"PAYLOAD","GP_ID":"205260555","NORAD_CAT_ID":"45380","REF_FRAME":"TEME","RCS_SIZE":"LARGE","LAUNCH_DATE":"2020-03-18","PERIAPSIS":"545.806","OBJECT_ID":"2020-019W","RA_OF_ASC_NODE":"200.0519","TLE_LINE2":"2 45380  53.0551 200.0519 0002018  49.0234 311.0929 15.06403401122735","MEAN_MOTION_DDOT":"0.0000000000000","MEAN_MOTION":"15.06403401","SEMIMAJOR_AXIS":"6925.338","MEAN_MOTION_DOT":"-0.00002009"},{"MEAN_MOTION":"15.06407282","SEMIMAJOR_AXIS":"6925.326","MEAN_MOTION_DOT":"0.00002561","RA_OF_ASC_NODE":"199.4102","TLE_LINE2":"2 45381  53.0555 199.4102 0001381  80.9037 279.2108 15.06407282122753","MEAN_MOTION_DDOT":"0.0000000000000","PERIAPSIS":"546.235","OBJECT_ID":"2020-019X","RCS_SIZE":"LARGE","LAUNCH_DATE":"2020-03-18","REF_FRAME":"TEME","NORAD_CAT_ID":"45381","CENTER_NAME":"EARTH","CLASSIFICATION_TYPE":"U","OBJECT_TYPE":"PAYLOAD","GP_ID":"205294359","OBJECT_NAME":"STARLINK-1258","ECCENTRICITY":"0.00013810","EPHEMERIS_TYPE":"0","SITE":"AFETR","DECAY_DATE":null,"APOAPSIS":"548.148","BSTAR":"0.00019071000000","EPOCH":"2022-06-03T15:36:47.615904","ARG_OF_PERICENTER":"80.9037","TIME_SYSTEM":"UTC","MEAN_ANOMALY":"279.2108","INCLINATION":"53.0555","COUNTRY_CODE":"US","ELEMENT_SET_NO":"999","PERIOD":"95.592","REV_AT_EPOCH":"12275","MEAN_ELEMENT_THEORY":"SGP4","FILE":"3479630","TLE_LINE1":"1 45381U 20019X   22154.65055111  .00002561  00000-0  19071-3 0  9996"},{"NORAD_CAT_ID":"45382","REF_FRAME":"TEME","RCS_SIZE":"LARGE","LAUNCH_DATE":"2020-03-18","PERIAPSIS":"544.896","OBJECT_ID":"2020-019Y","RA_OF_ASC_NODE":"199.5107","MEAN_MOTION_DDOT":"0.0000000000000","TLE_LINE2":"2 45382  53.0527 199.5107 0001108  47.6744 312.4339 15.06906042122575","SEMIMAJOR_AXIS":"6923.798","MEAN_MOTION":"15.06906042","MEAN_MOTION_DOT":"0.00051806","MEAN_ELEMENT_THEORY":"SGP4","TLE_LINE1":"1 45382U 20019Y   22154.62772080  .00051806  00000-0  34243-2 0  9998","FILE":"3479630","REV_AT_EPOCH":"12257","ELEMENT_SET_NO":"999","PERIOD":"95.560","MEAN_ANOMALY":"312.4339","INCLINATION":"53.0527","COUNTRY_CODE":"US","EPOCH":"2022-06-03T15:03:55.077120","ARG_OF_PERICENTER":"47.6744","TIME_SYSTEM":"UTC","OBJECT_NAME":"STARLINK-1264","EPHEMERIS_TYPE":"0","ECCENTRICITY":"0.00011080","DECAY_DATE":null,"BSTAR":"0.00342430000000","SITE":"AFETR","APOAPSIS":"546.430","CENTER_NAME":"EARTH","CLASSIFICATION_TYPE":"U","GP_ID":"205294609","OBJECT_TYPE":"PAYLOAD"},{"REF_FRAME":"TEME","LAUNCH_DATE":"2020-03-18","RCS_SIZE":"LARGE","NORAD_CAT_ID":"45383","MEAN_MOTION":"15.06411753","SEMIMAJOR_AXIS":"6925.313","MEAN_MOTION_DOT":"0.00000516","OBJECT_ID":"2020-019Z","PERIAPSIS":"546.155","MEAN_MOTION_DDOT":"0.0000000000000","TLE_LINE2":"2 45383  53.0551 199.4514 0001476  73.3220 286.7931 15.06411753122758","RA_OF_ASC_NODE":"199.4514","PERIOD":"95.591","ELEMENT_SET_NO":"999","COUNTRY_CODE":"US","INCLINATION":"53.0551","MEAN_ANOMALY":"286.7931","TLE_LINE1":"1 45383U 20019Z   22154.64317145  .00000516  00000-0  53515-4 0  9995","FILE":"3479630","MEAN_ELEMENT_THEORY":"SGP4","REV_AT_EPOCH":"12275","OBJECT_TYPE":"PAYLOAD","GP_ID":"205295860","CLASSIFICATION_TYPE":"U","CENTER_NAME":"EARTH","TIME_SYSTEM":"UTC","EPOCH":"2022-06-03T15:26:10.013280","ARG_OF_PERICENTER":"73.3220","SITE":"AFETR","DECAY_DATE":null,"APOAPSIS":"548.200","BSTAR":"0.00005351500000","EPHEMERIS_TYPE":"0","ECCENTRICITY":"0.00014760","OBJECT_NAME":"STARLINK-1266"},{"NORAD_CAT_ID":"45384","REF_FRAME":"TEME","RCS_SIZE":"LARGE","LAUNCH_DATE":"2020-03-18","PERIAPSIS":"546.072","OBJECT_ID":"2020-019AA","RA_OF_ASC_NODE":"199.7911","MEAN_MOTION_DDOT":"0.0000000000000","TLE_LINE2":"2 45384  53.0555 199.7911 0001624  67.2594 292.8566 15.06405365122741","SEMIMAJOR_AXIS":"6925.332","MEAN_MOTION_DOT":"0.00000141","MEAN_MOTION":"15.06405365","MEAN_ELEMENT_THEORY":"SGP4","FILE":"3479630","TLE_LINE1":"1 45384U 20019AA  22154.56482905  .00000141  00000-0  28354-4 0  9991","REV_AT_EPOCH":"12274","PERIOD":"95.592","ELEMENT_SET_NO":"999","INCLINATION":"53.0555","MEAN_ANOMALY":"292.8566","COUNTRY_CODE":"US","ARG_OF_PERICENTER":"67.2594","EPOCH":"2022-06-03T13:33:21.229920","TIME_SYSTEM":"UTC","EPHEMERIS_TYPE":"0","ECCENTRICITY":"0.00016240","OBJECT_NAME":"STARLINK-1267","DECAY_DATE":null,"SITE":"AFETR","BSTAR":"0.00002835400000","APOAPSIS":"548.322","CENTER_NAME":"EARTH","OBJECT_TYPE":"PAYLOAD","GP_ID":"205295611","CLASSIFICATION_TYPE":"U"},{"PERIOD":"95.593","ELEMENT_SET_NO":"999","INCLINATION":"53.0537","MEAN_ANOMALY":"293.4769","COUNTRY_CODE":"US","MEAN_ELEMENT_THEORY":"SGP4","TLE_LINE1":"1 45386U 20019AC  22154.63581863 -.00000501  00000-0 -14756-4 0  9997","FILE":"3479630","REV_AT_EPOCH":"12275","CENTER_NAME":"EARTH","OBJECT_TYPE":"PAYLOAD","GP_ID":"205294859","CLASSIFICATION_TYPE":"U","ARG_OF_PERICENTER":"66.6372","EPOCH":"2022-06-03T15:15:34.729632","TIME_SYSTEM":"UTC","ECCENTRICITY":"0.00014390","EPHEMERIS_TYPE":"0","OBJECT_NAME":"STARLINK-1272","BSTAR":"-0.00001475600000","DECAY_DATE":null,"SITE":"AFETR","APOAPSIS":"548.240","REF_FRAME":"TEME","RCS_SIZE":"LARGE","LAUNCH_DATE":"2020-03-18","NORAD_CAT_ID":"45386","SEMIMAJOR_AXIS":"6925.379","MEAN_MOTION":"15.06390168","MEAN_MOTION_DOT":"-0.00000501","PERIAPSIS":"546.247","OBJECT_ID":"2020-019AC","RA_OF_ASC_NODE":"199.4878","MEAN_MOTION_DDOT":"0.0000000000000","TLE_LINE2":"2 45386  53.0537 199.4878 0001439  66.6372 293.4769 15.06390168122750"},{"ARG_OF_PERICENTER":"58.4982","EPOCH":"2022-06-03T20:34:01.880544","TIME_SYSTEM":"UTC","OBJECT_NAME":"STARLINK-1274","ECCENTRICITY":"0.00012860","EPHEMERIS_TYPE":"0","APOAPSIS":"548.125","DECAY_DATE":null,"SITE":"AFETR","BSTAR":"0.00000744940000","CENTER_NAME":"EARTH","CLASSIFICATION_TYPE":"U","OBJECT_TYPE":"PAYLOAD","GP_ID":"205295109","MEAN_ELEMENT_THEORY":"SGP4","FILE":"3479630","TLE_LINE1":"1 45387U 20019AD  22154.85696621 -.00000170  00000-0  74494-5 0  9998","REV_AT_EPOCH":"12278","ELEMENT_SET_NO":"999","PERIOD":"95.593","MEAN_ANOMALY":"301.6132","INCLINATION":"53.0537","COUNTRY_CODE":"US","PERIAPSIS":"546.343","OBJECT_ID":"2020-019AD","RA_OF_ASC_NODE":"198.4816","TLE_LINE2":"2 45387  53.0537 198.4816 0001286  58.4982 301.6132 15.06393350122783","MEAN_MOTION_DDOT":"0.0000000000000","SEMIMAJOR_AXIS":"6925.369","MEAN_MOTION":"15.06393350","MEAN_MOTION_DOT":"-0.00000170","NORAD_CAT_ID":"45387","REF_FRAME":"TEME","RCS_SIZE":"LARGE","LAUNCH_DATE":"2020-03-18"},{"CLASSIFICATION_TYPE":"U","OBJECT_TYPE":"PAYLOAD","GP_ID":"205295361","CENTER_NAME":"EARTH","TIME_SYSTEM":"UTC","EPOCH":"2022-06-03T21:24:27.686304","ARG_OF_PERICENTER":"68.6749","DECAY_DATE":null,"APOAPSIS":"548.347","SITE":"AFETR","BSTAR":"0.00001848500000","OBJECT_NAME":"STARLINK-1280","ECCENTRICITY":"0.00016170","EPHEMERIS_TYPE":"0","ELEMENT_SET_NO":"999","PERIOD":"95.592","COUNTRY_CODE":"US","MEAN_ANOMALY":"291.4413","INCLINATION":"53.0550","TLE_LINE1":"1 45388U 20019AE  22154.89198711 -.00000006  00000-0  18485-4 0  9995","FILE":"3479630","MEAN_ELEMENT_THEORY":"SGP4","REV_AT_EPOCH":"12250","SEMIMAJOR_AXIS":"6925.363","MEAN_MOTION_DOT":"-0.00000006","MEAN_MOTION":"15.06395415","OBJECT_ID":"2020-019AE","PERIAPSIS":"546.108","TLE_LINE2":"2 45388  53.0550 218.3218 0001617  68.6749 291.4413 15.06395415122501","MEAN_MOTION_DDOT":"0.0000000000000","RA_OF_ASC_NODE":"218.3218","REF_FRAME":"TEME","LAUNCH_DATE":"2020-03-18","RCS_SIZE":"LARGE","NORAD_CAT_ID":"45388"},{"REF_FRAME":"TEME","RCS_SIZE":"LARGE","LAUNCH_DATE":"2020-03-18","NORAD_CAT_ID":"45389","SEMIMAJOR_AXIS":"6925.343","MEAN_MOTION_DOT":"0.00001619","MEAN_MOTION":"15.06401905","PERIAPSIS":"545.982","OBJECT_ID":"2020-019AF","RA_OF_ASC_NODE":"200.5107","TLE_LINE2":"2 45389  53.0554 200.5107 0001770  53.1987 306.9165 15.06401905122721","MEAN_MOTION_DDOT":"0.0000000000000","PERIOD":"95.592","ELEMENT_SET_NO":"999","INCLINATION":"53.0554","MEAN_ANOMALY":"306.9165","COUNTRY_CODE":"US","MEAN_ELEMENT_THEORY":"SGP4","FILE":"3479192","TLE_LINE1":"1 45389U 20019AF  22154.40729969  .00001619  00000-0  12753-3 0  9999","REV_AT_EPOCH":"12272","CENTER_NAME":"EARTH","GP_ID":"205260556","OBJECT_TYPE":"PAYLOAD","CLASSIFICATION_TYPE":"U","EPOCH":"2022-06-03T09:46:30.693216","ARG_OF_PERICENTER":"53.1987","TIME_SYSTEM":"UTC","ECCENTRICITY":"0.00017700","EPHEMERIS_TYPE":"0","OBJECT_NAME":"STARLINK-1283","DECAY_DATE":null,"SITE":"AFETR","BSTAR":"0.00012753000000","APOAPSIS":"548.434"},{"RA_OF_ASC_NODE":"200.3174","TLE_LINE2":"2 45390  53.0536 200.3174 0001927  49.3708 310.7449 15.06401613122721","MEAN_MOTION_DDOT":"0.0000000000000","PERIAPSIS":"545.874","OBJECT_ID":"2020-019AG","MEAN_MOTION_DOT":"-0.00000196","SEMIMAJOR_AXIS":"6925.344","MEAN_MOTION":"15.06401613","NORAD_CAT_ID":"45390","RCS_SIZE":"LARGE","LAUNCH_DATE":"2020-03-18","REF_FRAME":"TEME","ECCENTRICITY":"0.00019270","EPHEMERIS_TYPE":"0","OBJECT_NAME":"STARLINK-1284","BSTAR":"0.00000575540000","DECAY_DATE":null,"SITE":"AFETR","APOAPSIS":"548.543","EPOCH":"2022-06-03T10:44:52.734048","ARG_OF_PERICENTER":"49.3708","TIME_SYSTEM":"UTC","CENTER_NAME":"EARTH","OBJECT_TYPE":"PAYLOAD","GP_ID":"205261306","CLASSIFICATION_TYPE":"U","REV_AT_EPOCH":"12272","MEAN_ELEMENT_THEORY":"SGP4","FILE":"3479192","TLE_LINE1":"1 45390U 20019AG  22154.44783257 -.00000196  00000-0  57554-5 0  9995","INCLINATION":"53.0536","MEAN_ANOMALY":"310.7449","COUNTRY_CODE":"US","PERIOD":"95.592","ELEMENT_SET_NO":"999"}];
